[{"OBJECT_NAME":"STARLINK-3130","OBJECT_ID":"2021-104AF","EPOCH":"2026-03-09T16:41:19.843584","MEAN_MOTION":15.08837154,"ECCENTRICITY":0.00011751,"INCLINATION":53.2178,"RA_OF_ASC_NODE":209.0975,"ARG_OF_PERICENTER":88.965,"MEAN_ANOMALY":271.1476,"EPHEMERIS_TYPE":0,"CLASSIFICATION_TYPE":"U","NORAD_CAT_ID":49437,"ELEMENT_SET_NO":999,"REV_AT_EPOCH":23891,"BSTAR":2.2888138e-5,"MEAN_MOTION_DOT":7.6e-7,"MEAN_MOTION_DDOT":0},{"OBJECT_NAME":"OBJECT J","OBJECT_ID":"2023-091J","EPOCH":"2026-03-09T22:57:45.383328","MEAN_MOTION":15.13201377,"ECCENTRICITY":0.00147906,"INCLINATION":97.519,"RA_OF_ASC_NODE":123.4537,"ARG_OF_PERICENTER":127.2759,"MEAN_ANOMALY":232.9824,"EPHEMERIS_TYPE":0,"CLASSIFICATION_TYPE":"U","NORAD_CAT_ID":57174,"ELEMENT_SET_NO":999,"REV_AT_EPOCH":14862,"BSTAR":0.00032020689,"MEAN_MOTION_DOT":5.634e-5,"MEAN_MOTION_DDOT":0}]
